[Satellite]
VERSION=1.1
NAME=GPS BIIF-8  (PRN 03)
NICKNAME=GPS BIIF-8  (PRN 03)
TLE1=1 40294U 14068A   20157.19693329 -.00000010  00000-0  00000-0 0  9997
TLE2=2 40294  55.3391 117.3686 0027336  37.1626 322.9810  2.00578638 41026
STATUS=0
